NORAD_CAT_ID,OBJECT_NAME,OBJECT_TYPE,EPOCH,MEAN_MOTION,ECCENTRICITY,INCLINATION,RA_OF_ASC_NODE,ARG_OF_PERICENTER,MEAN_ANOMALY,BSTAR,MEAN_MOTION_DOT,MEAN_MOTION_DDOT,TLE_LINE0,TLE_LINE1,TLE_LINE2,SEMIMAJOR_AXIS,PERIOD,APOGEE,PERIGEE,DECAYED
51980.0,STARLINK-3649,PAYLOAD,2023-03-24 13:30:09,15.08891665,0.0001614,53.2181,212.4889,64.5414,295.5745,0.0013098,0.00020648,0.0,0 STARLINK-3649,1 51980U 22025AA  23083.56261271  .00020648  00000-0  13098-2 0  9993,2 51980  53.2181 212.4889 0001614  64.5414 295.5745 15.08891665 57845,6917.722,95.434,540.704,538.471,0.0
51980.0,STARLINK-3649,PAYLOAD,2023-03-24 15:05:32,15.08907259,0.0001637,53.218,212.1913,69.625,290.4918,0.001878,0.00029782,0.0,0 STARLINK-3649,1 51980U 22025AA  23083.62884919  .00029782  00000-0  18780-2 0  9991,2 51980  53.2180 212.1913 0001637  69.6250 290.4918 15.08907259 58943,6917.675,95.433,540.672,538.407,0.0
51980.0,STARLINK-3649,PAYLOAD,2023-03-25 11:45:35,15.08733856,0.0001374,53.2185,208.3263,79.6684,280.4463,-0.00064181,-0.00010458,0.0,0 STARLINK-3649,1 51980U 22025AA  23084.48999694 -.00010458  00000-0 -64181-3 0  9992,2 51980  53.2185 208.3263 0001374  79.6684 280.4463 15.08733856 59072,6918.205,95.444,541.02,539.119,0.0
51980.0,STARLINK-3649,PAYLOAD,2023-03-25 19:42:33,15.08725415,0.0001609,53.2173,206.8367,97.494,262.6235,0.0013729,0.00021561,0.0,0 STARLINK-3649,1 51980U 22025AA  23084.82122303  .00021561  00000-0  13729-2 0  9991,2 51980  53.2173 206.8367 0001609  97.4940 262.6235 15.08725415 58037,6918.231,95.445,541.209,538.983,0.0
51980.0,STARLINK-3649,PAYLOAD,2023-03-26 11:36:24,15.08864498,0.0001982,53.2186,203.8666,88.7013,271.4206,0.0021451,0.0003404,0.0,0 STARLINK-3649,1 51980U 22025AA  23085.48361836  .00034040  00000-0  21451-2 0  9997,2 51980  53.2186 203.8666 0001982  88.7013 271.4206 15.08864498 59221,6917.806,95.436,541.042,538.299,0.0
51980.0,STARLINK-3649,PAYLOAD,2023-03-26 16:22:33,15.08893924,0.0001658,53.2172,202.9691,90.0831,270.0351,0.0024204,0.00038501,0.0,0 STARLINK-3649,1 51980U 22025AA  23085.68233085  .00038501  00000-0  24204-2 0  9998,2 51980  53.2172 202.9691 0001658  90.0831 270.0351 15.08893924 59253,6917.716,95.434,540.728,538.434,0.0
51980.0,STARLINK-3649,PAYLOAD,2023-03-26 19:33:19,15.08903833,0.0001666,53.2175,202.3752,91.3431,268.7752,0.0022903,0.00036415,0.0,0 STARLINK-3649,1 51980U 22025AA  23085.81480532  .00036415  00000-0  22903-2 0  9990,2 51980  53.2175 202.3752 0001666  91.3431 268.7752 15.08903833 58188,6917.685,95.434,540.703,538.398,0.0
51980.0,STARLINK-3649,PAYLOAD,2023-03-27 08:16:24,15.08855105,0.0001397,53.2167,199.9976,111.1556,248.9585,0.00073327,0.00011406,0.0,0 STARLINK-3649,1 51980U 22025AA  23086.34472549  .00011406  00000-0  73327-3 0  9998,2 51980  53.2167 199.9976 0001397 111.1556 248.9585 15.08855105 59350,6917.834,95.437,540.666,538.733,0.0
51980.0,STARLINK-3649,PAYLOAD,2023-03-27 13:02:33,15.08864772,0.0001124,53.2166,199.1062,91.8036,268.3085,0.0017903,0.00028339,0.0,0 STARLINK-3649,1 51980U 22025AA  23086.54344477  .00028339  00000-0  17903-2 0  9998,2 51980  53.2166 199.1062 0001124  91.8036 268.3085 15.08864772 58295,6917.805,95.436,540.447,538.892,0.0
51980.0,STARLINK-3649,PAYLOAD,2023-03-27 16:13:19,15.08867203,0.0001202,53.2166,198.5112,95.8253,264.2876,0.0023111,0.00036712,0.0,0 STARLINK-3649,1 51980U 22025AA  23086.67592406  .00036712  00000-0  23111-2 0  9991,2 51980  53.2166 198.5112 0001202  95.8253 264.2876 15.08867203 58314,6917.797,95.436,540.494,538.831,0.0
51980.0,STARLINK-3649,PAYLOAD,2023-03-28 11:17:57,15.08854858,0.0001038,53.2163,194.941,106.9364,253.1742,0.0014885,0.0002349,0.0,0 STARLINK-3649,1 51980U 22025AA  23087.47080443  .00023490  00000-0  14885-2 0  9990,2 51980  53.2163 194.9410 0001038 106.9364 253.1742 15.08854858 59521,6917.835,95.437,540.418,538.982,0.0
51980.0,STARLINK-3649,PAYLOAD,2023-03-28 12:53:20,15.08858362,0.0001144,53.2161,194.6442,102.6604,257.4516,0.0016281,0.00025731,0.0,0 STARLINK-3649,1 51980U 22025AA  23087.53704405  .00025731  00000-0  16281-2 0  9990,2 51980  53.2161 194.6442 0001144 102.6604 257.4516 15.08858362 58449,6917.824,95.436,540.481,538.898,0.0
51980.0,STARLINK-3649,PAYLOAD,2023-03-28 16:04:06,15.088669,0.0001191,53.2161,194.0497,101.8894,258.2231,0.0017769,0.00028125,0.0,0 STARLINK-3649,1 51980U 22025AA  23087.66952185  .00028125  00000-0  17769-2 0  9996,2 51980  53.2161 194.0497 0001191 101.8894 258.2231 15.08866900 58469,6917.798,95.436,540.487,538.839,0.0
51980.0,STARLINK-3649,PAYLOAD,2023-03-29 06:22:34,15.08862031,0.0001946,53.2157,191.3753,135.5748,224.54,0.0013222,0.0002083,0.0,0 STARLINK-3649,1 51980U 22025AA  23088.26567875  .00020830  00000-0  13222-2 0  9996,2 51980  53.2157 191.3753 0001946 135.5748 224.5400 15.08862031 59645,6917.813,95.436,541.024,538.332,0.0
51980.0,STARLINK-3649,PAYLOAD,2023-03-29 12:44:07,15.088534,0.0001793,53.216,190.1845,135.2344,224.8793,0.00088829,0.00013883,0.0,0 STARLINK-3649,1 51980U 22025AA  23088.53063817  .00013883  00000-0  88829-3 0  9999,2 51980  53.2160 190.1845 0001793 135.2344 224.8793 15.08853400 58598,6917.839,95.437,540.945,538.464,0.0
51980.0,STARLINK-3649,PAYLOAD,2023-03-29 14:19:30,15.08857403,0.0001215,53.2159,189.8872,92.9186,267.1945,0.0010261,0.00016088,0.0,0 STARLINK-3649,1 51980U 22025AA  23088.59687994  .00016088  00000-0  10261-2 0  9997,2 51980  53.2159 189.8872 0001215  92.9186 267.1945 15.08857403 59691,6917.827,95.436,540.533,538.852,0.0
51980.0,STARLINK-3649,PAYLOAD,2023-03-29 19:05:39,15.08874644,0.000109,53.2156,188.9928,110.1849,249.926,0.0012908,0.00020334,0.0,0 STARLINK-3649,1 51980U 22025AA  23088.79559344  .00020334  00000-0  12908-2 0  9995,2 51980  53.2156 188.9928 0001090 110.1849 249.9260 15.08874644 58637,6917.774,95.435,540.394,538.885,0.0
51980.0,STARLINK-3649,PAYLOAD,2023-03-29 23:51:49,15.08831126,3.54e-05,53.2162,188.1047,183.3125,176.7865,-0.00036735,-6.127e-05,0.0,0 STARLINK-3649,1 51980U 22025AA  23088.99431751 -.00006127  00000-0 -36735-3 0  9999,2 51980  53.2162 188.1047 0000354 183.3125 176.7865 15.08831126 59759,6917.908,95.438,540.017,539.528,0.0
51980.0,STARLINK-3649,PAYLOAD,2023-03-30 14:10:18,15.08852614,0.0001438,53.2153,185.4284,86.3318,273.7839,0.0026892,0.00042786,0.0,0 STARLINK-3649,1 51980U 22025AA  23089.59048622  .00042786  00000-0  26892-2 0  9998,2 51980  53.2153 185.4284 0001438  86.3318 273.7839 15.08852614 59846,6917.842,95.437,540.702,538.712,0.0
51980.0,STARLINK-3649,PAYLOAD,2023-03-30 18:56:27,15.08876767,0.0001449,53.2151,184.5353,89.2173,270.8985,0.0032366,0.00051652,0.0,0 STARLINK-3649,1 51980U 22025AA  23089.78920247  .00051652  00000-0  32366-2 0  9996,2 51980  53.2151 184.5353 0001449  89.2173 270.8985 15.08876767 58781,6917.768,95.435,540.635,538.631,0.0
51980.0,STARLINK-3649,PAYLOAD,2023-03-31 09:14:55,15.08868461,9.22e-05,53.2157,181.8596,80.1876,279.922,0.0022443,0.00035639,0.0,0 STARLINK-3649,1 51980U 22025AA  23090.38536177  .00035639  00000-0  22443-2 0  9991,2 51980  53.2157 181.8596 0000922  80.1876 279.9220 15.08868461 59966,6917.793,95.436,540.296,539.021,0.0
51980.0,STARLINK-3649,PAYLOAD,2023-03-31 23:33:23,15.08871778,0.0001948,53.2161,179.1847,74.4131,285.7076,0.0013092,0.00020628,0.0,0 STARLINK-3649,1 51980U 22025AA  23090.98151794  .00020628  00000-0  13092-2 0  9997,2 51980  53.2161 179.1847 0001948  74.4131 285.7076 15.08871778 60050,6917.783,95.436,540.996,538.301,0.0
51980.0,STARLINK-3649,PAYLOAD,2023-04-01 12:16:27,15.08863059,0.0001428,53.2165,176.804,85.5283,274.5872,0.0017399,0.00027529,0.0,0 STARLINK-3649,1 51980U 22025AA  23091.51143337  .00027529  00000-0  17399-2 0  9992,2 51980  53.2165 176.8040 0001428  85.5283 274.5872 15.08863059 60139,6917.81,95.436,540.663,538.687,0.0
51980.0,STARLINK-3649,PAYLOAD,2023-04-01 17:02:36,15.08869892,0.0001565,53.2167,175.911,104.9803,255.1362,0.0015032,0.00023736,0.0,0 STARLINK-3649,1 51980U 22025AA  23091.71014947  .00023736  00000-0  15032-2 0  9996,2 51980  53.2167 175.9110 0001565 104.9803 255.1362 15.08869892 59076,6917.789,95.436,540.737,538.571,0.0
51980.0,STARLINK-3649,PAYLOAD,2023-04-02 10:31:52,15.08826711,0.0001304,53.2169,172.6421,104.7267,255.387,0.0013897,0.0002189,0.0,0 STARLINK-3649,1 51980U 22025AA  23092.43880556  .00021890  00000-0  13897-2 0  9999,2 51980  53.2169 172.6421 0001304 104.7267 255.3870 15.08826711 60273,6917.921,95.438,540.688,538.884,0.0
51980.0,STARLINK-3649,PAYLOAD,2023-04-02 12:07:16,15.08827284,0.0001266,53.2169,172.345,103.1424,256.971,0.001644,0.00025964,0.0,0 STARLINK-3649,1 51980U 22025AA  23092.50504682  .00025964  00000-0  16440-2 0  9993,2 51980  53.2169 172.3450 0001266 103.1424 256.9710 15.08827284 59192,6917.919,95.438,540.66,538.908,0.0
51980.0,STARLINK-3649,PAYLOAD,2023-04-02 21:39:34,15.08830741,9.36e-05,53.217,170.564,184.8557,175.2427,0.00071852,0.00011163,0.0,0 STARLINK-3649,1 51980U 22025AA  23092.90248572  .00011163  00000-0  71852-3 0  9995,2 51980  53.2170 170.5640 0000936 184.8557 175.2427 15.08830741 59258,6917.909,95.438,540.421,539.126,0.0
51980.0,STARLINK-3649,PAYLOAD,2023-04-03 04:01:08,15.08838354,0.0001682,53.2169,169.3716,89.5777,270.5408,0.002058,0.00032616,0.0,0 STARLINK-3649,1 51980U 22025AA  23093.16745492  .00032616  00000-0  20580-2 0  9994,2 51980  53.2169 169.3716 0001682  89.5777 270.5408 15.08838354 60382,6917.885,95.438,540.914,538.587,0.0
51980.0,STARLINK-3649,PAYLOAD,2023-04-03 11:58:03,15.0884466,0.00013,53.2174,167.8853,86.87,273.2441,0.0013552,0.00021349,0.0,0 STARLINK-3649,1 51980U 22025AA  23093.49865444  .00021349  00000-0  13552-2 0  9992,2 51980  53.2174 167.8853 0001300  86.8700 273.2441 15.08844660 60436,6917.866,95.437,540.63,538.832,0.0
51980.0,STARLINK-3649,PAYLOAD,2023-04-03 16:44:12,15.08856767,0.0001263,53.217,166.9933,79.8785,280.2349,0.0016108,0.00025453,0.0,0 STARLINK-3649,1 51980U 22025AA  23093.69737267  .00025453  00000-0  16108-2 0  9995,2 51980  53.2170 166.9933 0001263  79.8785 280.2349 15.08856767 59371,6917.829,95.436,540.568,538.82,0.0
